43257,IRIDIUM 150,2018,100.4,860.0,+,86.4,Active,1,LEO,USA,USA,Commercial/Government,Communications,Falcon,1 43257U 18030J   24271.51054540  .00000783  00000+0  27244-3 0  9992,2 43257  86.4038 192.7882 0002350  91.4807 268.6658 14.34222676340193,14.34222676,0.000235,LEO
43258,IRIDIUM 143,2018,100.4,860.0,+,86.4,Active,1,LEO,USA,USA,Commercial/Government,Communications,Falcon,1 43258U 18030K   24271.70082797  .00000327  00000+0  10954-3 0  9993,2 43258  86.4043 192.7769 0002384  89.0675 271.0794 14.34217813340159,14.34217813,0.0002384,LEO
43478,IRIDIUM 161,2018,99.77,860.0,+,86.45,Active,1,LEO,USA,USA,Commercial/Government,Communications,Falcon,1 43478U 18047C   24271.51690852  .00001179  00000+0  34451-3 0  9995,2 43478  86.4549 350.7854 0002025  94.3675 265.7758 14.43283629334607,14.43283629,0.0002025,LEO
43479,IRIDIUM 152,2018,100.4,860.0,+,86.4,Active,1,LEO,USA,USA,Commercial/Government,Communications,Falcon,1 43479U 18047D   24271.46423842  .00000641  00000+0  22190-3 0  9993,2 43479  86.4024 350.6670 0002257  94.7675 265.3779 14.34217707332513,14.34217707,0.0002257,LEO
43480,IRIDIUM 147,2018,100.4,860.0,+,86.4,Active,1,LEO,USA,USA,Commercial/Government,Communications,Falcon,1 43480U 18047E   24271.47057996  .00000340  00000+0  11426-3 0  9995,2 43480  86.4021 350.6581 0001951  90.7602 269.3817 14.34217421332519,14.34217421,0.0001951,LEO
43481,IRIDIUM 110,2018,100.4,860.0,+,86.4,Active,1,LEO,USA,USA,Commercial/Government,Communications,Falcon,1 43481U 18047F   24271.47691934  .00000868  00000+0  30268-3 0  9992,2 43481  86.4025 350.7312 0001830  88.2352 271.9053 14.34220971332501,14.34220971,0.000183,LEO
43482,IRIDIUM 162,2018,99.77,860.0,+,86.45,Active,1,LEO,USA,USA,Commercial/Government,Communications,Falcon,1 43482U 18047G   24271.30262076  .00001116  00000+0  32564-3 0  9994,2 43482  86.4546 350.7736 0001814  91.9188 268.2220 14.43285795334568,14.43285795,0.0001814,LEO
43569,IRIDIUM 160,2018,100.4,860.0,+,86.4,Active,1,LEO,USA,USA,Commercial/Government,Communications,Falcon,1 43569U 18061A   24272.12044263  .00000200  00000+0  64357-4 0  9992,2 43569  86.3970 318.8487 0002239  87.4785 272.6667 14.34218937323495,14.34218937,0.0002239,LEO
